FLOCK 2K-41             
1 42875U 17042BC  17201.47354349  .00001822  00000-0  59601-4 0  9998
2 42875  97.0024 110.1526 0012066 212.0143 148.0368 15.32842360   750
FLOCK 2K-36             
1 42876U 17042BD  17201.40817560  .00001811  00000-0  59209-4 0  9993
2 42876  97.0026 110.0915 0012094 212.5821 147.4677 15.32865030   747
FLOCK 2K-35             
1 42877U 17042BE  17201.34276443  .00001830  00000-0  59765-4 0  9994
2 42877  97.0026 110.0297 0012198 212.7674 147.2813 15.32899909   735
FLOCK 2K-34             
1 42878U 17042BF  17201.34274446  .00001840  00000-0  60065-4 0  9992
2 42878  97.0023 110.0289 0012180 212.7161 147.3329 15.32905293   733
FLOCK 2K-33             
1 42879U 17042BG  17201.34272539  .00001844  00000-0  60168-4 0  9992
2 42879  97.0023 110.0291 0012162 212.4677 147.5819 15.32910402   730
FLOCK 2K-28             
1 42880U 17042BH  17201.34271930  .00001798  00000-0  58711-4 0  9997
2 42880  97.0026 110.0297 0012121 212.5467 147.5030 15.32911665   731
FLOCK 2K-27             
1 42882U 17042BK  17201.40781558  .00001828  00000-0  59561-4 0  9996
2 42882  97.0026 110.0918 0012288 212.2304 147.8189 15.32960294   745
FLOCK 2K-26             
1 42883U 17042BL  17201.40773631  .00001824  00000-0  59396-4 0  9992
2 42883  97.0025 110.0916 0012335 212.2800 147.7689 15.32981273   741
FLOCK 2K-25             
1 42884U 17042BM  17201.34234315  .00001876  00000-0  60979-4 0  9993
2 42884  97.0022 110.0295 0012423 212.4166 147.6316 15.33012735   738
FLOCK 2K-20             
1 42885U 17042BN  17201.40751840  .00001798  00000-0  58486-4 0  9991
2 42885  97.0026 110.0921 0012497 212.0173 148.0313 15.33038782   747
FLOCK 2K-19             
1 42886U 17042BP  17201.34217684  .00001854  00000-0  60189-4 0  9994
2 42886  97.0026 110.0305 0012522 212.2365 147.8114 15.33057150   733
FLOCK 2K-18             
1 42887U 17042BQ  17201.53789946  .00001795  00000-0  58323-4 0  9992
2 42887  97.0025 110.2158 0012594 211.2355 148.8141 15.33081856   762
FLOCK 2K-17             
1 42888U 17042BR  17201.27678389  .00001894  00000-0  61404-4 0  9996
2 42888  97.0022 109.9680 0012527 211.8867 148.1620 15.33089773   722
FLOCK 2K-16             
1 42889U 17042BS  17201.53777489  .00002144  00000-0  69144-4 0  9995
2 42889  97.0025 110.2160 0012583 210.7518 149.2989 15.33113180   761
FLOCK 2K-15             
1 42890U 17042BT  17201.40715018  .00002659  00000-0  85139-4 0  9996
2 42890  97.0018 110.0922 0012872 210.4606 149.6013 15.33139682   740
FLOCK 2K-13             
1 42891U 17042BU  17201.53758139  .00001804  00000-0  58455-4 0  9994
2 42891  97.0024 110.2162 0012650 210.1062 149.9455 15.33164205   767
FLOCK 2K-14             
1 42892U 17042BV  17201.34177609  .00001816  00000-0  58826-4 0  9996
2 42892  97.0021 110.0304 0012652 210.7201 149.3303 15.33163715   732
FLOCK 2K-12             
1 42893U 17042BW  17201.47211194  .00001833  00000-0  59244-4 0  9993
2 42893  97.0026 110.1548 0012724 209.4752 150.5775 15.33216847   759
FLOCK 2K-11             
1 42894U 17042BX  17201.40681270  .00001846  00000-0  59624-4 0  9999
2 42894  97.0027 110.0931 0012633 209.1928 150.8611 15.33225702   748
FLOCK 2K-10             
1 42895U 17042BY  17201.40670278  .00001859  00000-0  59974-4 0  9998
2 42895  97.0021 110.0927 0012645 208.6690 151.3859 15.33254799   749
FLOCK 2K-09             
1 42896U 17042BZ  17201.47184920  .00005869  00000-0  18421-3 0  9996
2 42896  97.0025 110.1548 0012427 207.1710 152.8885 15.33306652   920
